{"type":"FeatureCollection","features":[{"type":"Feature","properties":{"between":"沖縄県第1区/沖縄県第2区"},"geometry":{"type":"MultiLineString","coordinates":[[[38.31741184655746,38.608301999741556],[38.38422106215102,38.45988667942984]],[[38.38422106215102,38.45988667942984],[38.52500670177046,38.48670830476532]],[[38.52500670177046,38.48670830476532],[38.56159661805219,38.37277219679385]],[[38.7855740667728,38.34781402431795],[38.895630947577395,38.28385412832916]],[[38.895630947577395,38.28385412832916],[39.70242259552313,38.28656095702429]],[[39.70242259552313,38.28656095702429],[40.02915977883153,38.487552700692845]],[[40.02915977883153,38.487552700692845],[40.09587815545929,38.373965393917985]],[[40.09587815545929,38.373965393917985],[40.12786009724324,38.42644361343958]],[[40.16374482495336,38.112585520769244],[40.04706981096953,37.93611179693378]],[[40.04706981096953,37.93611179693378],[40.18865152511921,37.8269007726006]],[[40.18865152511921,37.8269007726006],[40.17568890350892,37.46783486969208]]]}},{"type":"Feature","properties":{"between":"沖縄県第1区/沖縄県第4区"},"geometry":{"type":"MultiLineString","coordinates":[[[40.06409180176307,37.486488856320676],[39.77864395912176,37.325034717726915]],[[39.77864395912176,37.325034717726915],[39.69718805303524,37.170030930106606]],[[39.69718805303524,37.170030930106606],[39.550149985786994,37.06135737383097]],[[39.550149985786994,37.06135737383097],[39.51404278955002,36.857808395221014]],[[39.10680245192887,36.32003043557818],[38.85106548295834,36.02805791048382]],[[38.85106548295834,36.02805791048382],[38.6773055340319,36.07258766180827]],[[38.00509893220957,36.23904203638185],[37.69347776621334,36.45153151746139]],[[37.69347776621334,36.45153151746139],[37.585770621097055,36.053093888900705]],[[37.585770621097055,36.053093888900705],[37.632085992874934,35.98768887250715]],[[37.632085992874934,35.98768887250715],[37.463834889094436,35.84322212027861]],[[37.463834889094436,35.84322212027861],[37.26959392565287,35.774909821115344]],[[37.26959392565287,35.774909821115344],[37.1173737139753,35.60030783269999]],[[37.1173737139753,35.60030783269999],[37.02727612280727,35.58683779004067]],[[37.02727612280727,35.58683779004067],[36.95303874235447,35.659773274825824]],[[36.95303874235447,35.659773274825824],[36.87757444845307,35.58462660597767]],[[36.87757444845307,35.58462660597767],[36.81774911857965,35.641197508221126]],[[36.81774911857965,35.641197508221126],[36.61224247870304,35.43346327013817]],[[36.61224247870304,35.43346327013817],[36.33264413907405,35.30163318336701]]]}},{"type":"Feature","properties":{"between":"沖縄県第2区/沖縄県第3区"},"geometry":{"type":"MultiLineString","coordinates":[[[40.621829888269446,47.9780336886093],[40.80848662052845,47.83062864106742]],[[41.252838646303516,48.078288375029906],[41.53109418583799,48.200700743033416]],[[41.53109418583799,48.200700743033416],[41.88234614123808,48.10548773766531]],[[41.88234614123808,48.10548773766531],[42.06885963647351,47.90875476547394]],[[42.06885963647351,47.90875476547394],[42.394878754916135,47.87808694634307]],[[42.394878754916135,47.87808694634307],[42.40489129537726,47.82969594561922]],[[42.64281024601763,47.1108386010787],[42.557959979643634,46.899564202585495]],[[42.44876496465103,46.213268562084906],[42.37954026907946,46.22735956226359]],[[42.381694322692795,46.071443307862296],[42.324609951675974,45.96594737037187]],[[42.324609951675974,45.96594737037187],[42.39588385775249,45.928149724263136]],[[42.39588385775249,45.928149724263136],[42.397411296386025,45.82832424867956]],[[42.397411296386025,45.82832424867956],[42.337859658251254,45.80487975196308]],[[42.337859658251254,45.80487975196308],[42.376838268061476,45.59097012636296]],[[42.376838268061476,45.59097012636296],[42.26420988794759,45.34325183628707]],[[42.26420988794759,45.34325183628707],[42.2064337215847,45.3423923254291]],[[42.2064337215847,45.3423923254291],[42.15652891836298,45.24703473992252]],[[42.15652891836298,45.24703473992252],[42.213887545045026,44.4435401568614]],[[42.213887545045026,44.4435401568614],[42.31788702238197,44.44585614498337]],[[42.31788702238197,44.44585614498337],[42.31848797876303,44.538695629030755]],[[42.31848797876303,44.538695629030755],[42.407436666146126,44.5164509939306]],[[42.32420524129568,42.806534001615624],[42.19951511021808,42.774144904267935]],[[42.19951511021808,42.774144904267935],[42.18445088004349,42.692953872968104]],[[42.85052272664674,42.84004515044621],[42.93834863878533,42.881289516075476]],[[42.93834863878533,42.881289516075476],[42.95854317925489,42.96634208682508]],[[42.95854317925489,42.96634208682508],[43.080348503533685,42.880808685142526]],[[43.080348503533685,42.880808685142526],[43.21559912247707,43.123081728854274]],[[43.21559912247707,43.123081728854274],[43.28068521736211,43.141927820762824]],[[43.28068521736211,43.141927820762824],[43.34926990472913,43.07363611078244]],[[43.34926990472913,43.07363611078244],[43.52684114270528,43.140500366498536]],[[43.52684114270528,43.140500366498536],[43.58711079871064,42.977789400585365]],[[43.58711079871064,42.977789400585365],[43.49256191028442,42.720872042644345]],[[43.49256191028442,42.720872042644345],[43.54512970969268,42.614225173677156]],[[43.54512970969268,42.614225173677156],[43.53360312382513,42.34393974157638]],[[43.53360312382513,42.34393974157638],[43.68938781325367,42.04147044186241]],[[43.68938781325367,42.04147044186241],[43.98812436730249,42.11589587031253]],[[43.98812436730249,42.11589587031253],[44.37980436147953,42.120890673336845]],[[44.37980436147953,42.120890673336845],[44.53687324976816,41.99111462119696]]]}}]}